{"type": "FeatureCollection", "features": [{"type": "Feature", "id": "KO.ARPRA", "properties": {"code": "ARPRA", "name": "Arapgir, Malatya, Turkey", "refid": null, "instrumentType": "UNK", "source": "KO", "network": "KO", "commType": "UNK", "location": "", "intensity": 6.0, "intensity_flag": "", "intensity_stddev": 0.63, "pga": 5.0218, "pgv": 12.7289, "distance": 115.423, "elev": null, "vs30": 878.13, "channels": [{"name": "HNE", "amplitudes": [{"name": "sa(0.3)", "value": 11.5508, "units": "%g", "flag": "0", "ln_sigma": 0.0}, {"name": "sa(1.0)", "value": 6.0479, "units": "%g", "flag": "0", "ln_sigma": 0.0}, {"name": "sa(3.0)", "value": 4.9121, "units": "%g", "flag": "0", "ln_sigma": 0.0}, {"name": "pga", "value": 4.4765, "units": "%g", "flag": "0", "ln_sigma": 0.0}, {"name": "pgv", "value": 12.7289, "units": "cm/s", "flag": "0", "ln_sigma": 0.0}]}, {"name": "HNN", "amplitudes": [{"name": "sa(0.3)", "value": 8.6159, "units": "%g", "flag": "0", "ln_sigma": 0.0}, {"name": "sa(1.0)", "value": 10.2017, "units": "%g", "flag": "0", "ln_sigma": 0.0}, {"name": "sa(3.0)", "value": 4.4014, "units": "%g", "flag": "0", "ln_sigma": 0.0}, {"name": "pga", "value": 5.0168, "units": "%g", "flag": "0", "ln_sigma": 0.0}, {"name": "pgv", "value": 10.1561, "units": "cm/s", "flag": "0", "ln_sigma": 0.0}]}, {"name": "HNZ", "amplitudes": [{"name": "sa(0.3)", "value": 4.446, "units": "%g", "flag": "0", "ln_sigma": 0.0}, {"name": "sa(1.0)", "value": 5.1533, "units": "%g", "flag": "0", "ln_sigma": 0.0}, {"name": "sa(3.0)", "value": 2.5022, "units": "%g", "flag": "0", "ln_sigma": 0.0}, {"name": "pga", "value": 1.9918, "units": "%g", "flag": "0", "ln_sigma": 0.0}, {"name": "pgv", "value": 7.3843, "units": "cm/s", "flag": "0", "ln_sigma": 0.0}]}, {"name": "--.HNE", "amplitudes": [{"name": "pga", "value": 3.6021, "units": "%g", "flag": "0", "ln_sigma": 0.0}, {"name": "pgv", "value": 9.5718, "units": "cm/s", "flag": "0", "ln_sigma": 0.0}, {"name": "sa(0.3)", "value": 12.5476, "units": "%g", "flag": "0", "ln_sigma": 0.0}, {"name": "sa(1.0)", "value": 6.4252, "units": "%g", "flag": "0", "ln_sigma": 0.0}, {"name": "sa(3.0)", "value": 5.3151, "units": "%g", "flag": "0", "ln_sigma": 0.0}]}, {"name": "--.HNN", "amplitudes": [{"name": "pga", "value": 5.0218, "units": "%g", "flag": "0", "ln_sigma": 0.0}, {"name": "pgv", "value": 10.1899, "units": "cm/s", "flag": "0", "ln_sigma": 0.0}, {"name": "sa(0.3)", "value": 8.7843, "units": "%g", "flag": "0", "ln_sigma": 0.0}, {"name": "sa(1.0)", "value": 11.0571, "units": "%g", "flag": "0", "ln_sigma": 0.0}, {"name": "sa(3.0)", "value": 3.9703, "units": "%g", "flag": "0", "ln_sigma": 0.0}]}, {"name": "--.HNZ", "amplitudes": [{"name": "pga", "value": 1.9195, "units": "%g", "flag": "0", "ln_sigma": 0.0}, {"name": "pgv", "value": 4.6635, "units": "cm/s", "flag": "0", "ln_sigma": 0.0}, {"name": "sa(0.3)", "value": 4.5423, "units": "%g", "flag": "0", "ln_sigma": 0.0}, {"name": "sa(1.0)", "value": 5.1589, "units": "%g", "flag": "0", "ln_sigma": 0.0}, {"name": "sa(3.0)", "value": 2.3761, "units": "%g", "flag": "0", "ln_sigma": 0.0}]}], "station_type": "seismic", "nresp": "null", "predictions": [{"name": "pgv", "value": 5.6563, "value_rock": 6.2123, "value_soil": 15.4949, "units": "cm/s", "ln_tau": 0.3811, "ln_phi": 0.566, "ln_sigma": 0.6824, "ln_sigma_rock": 0.6871, "ln_sigma_soil": 0.6799, "ln_bias": 0.0394, "ln_bias_sigma": 0.0482}, {"name": "pga", "value": 4.5325, "value_rock": 4.7663, "value_soil": 7.1792, "units": "%g", "ln_tau": 0.3977, "ln_phi": 0.5887, "ln_sigma": 0.7104, "ln_sigma_rock": 0.7135, "ln_sigma_soil": 0.7018, "ln_bias": 0.0032, "ln_bias_sigma": 0.0498}, {"name": "sa(1.0)", "value": 4.463, "value_rock": 5.0876, "value_soil": 18.5449, "units": "%g", "ln_tau": 0.4258, "ln_phi": 0.6743, "ln_sigma": 0.7975, "ln_sigma_rock": 0.8053, "ln_sigma_soil": 0.7988, "ln_bias": 0.0143, "ln_bias_sigma": 0.0575}, {"name": "sa(0.3)", "value": 8.0925, "value_rock": 8.9345, "value_soil": 21.3888, "units": "%g", "ln_tau": 0.3835, "ln_phi": 0.6611, "ln_sigma": 0.7642, "ln_sigma_rock": 0.767, "ln_sigma_soil": 0.7514, "ln_bias": -0.0121, "ln_bias_sigma": 0.0561}, {"name": "mmi", "value": 4.854, "value_rock": 4.9827, "value_soil": 6.237, "units": "intensity", "tau": 0.5231, "phi": 1.0001, "sigma": 1.1286, "sigma_rock": 1.1341, "sigma_soil": 1.1259, "bias": 0.0534, "bias_sigma": 0.0962}, {"name": "sa(3.0)", "value": 1.7355, "value_rock": 1.9274, "value_soil": 5.9679, "units": "%g", "ln_tau": 0.4321, "ln_phi": 0.6568, "ln_sigma": 0.7862, "ln_sigma_rock": 0.7985, "ln_sigma_soil": 0.7984, "ln_bias": 0.0128, "ln_bias_sigma": 0.0574}], "mmi_from_pgm": [{"name": "pgv", "value": 5.97, "sigma": 0.63, "flag": "0"}, {"name": "pga", "value": 4.61, "sigma": 0.66, "flag": "0"}, {"name": "sa(1.0)", "value": 5.24, "sigma": 0.75, "flag": "0"}, {"name": "sa(0.3)", "value": 4.98, "sigma": 0.82, "flag": "0"}, {"name": "sa(3.0)", "value": 6.36, "sigma": 0.89, "flag": "0"}], "distance_stddev": 0.0, "distances": {"repi": 242.271, "rhypo": 242.932, "rjb": 115.427, "rjb_var": 0.0, "rrup": 115.423, "rrup_var": 0.0, "rx": -68.097, "ry0": 166.414, "rvolc": 0.0}}, "geometry": {"type": "Point", "coordinates": [38.3356, 39.0929]}}, {"type": "Feature", "id": "KO.CMRD", "properties": {"code": "CMRD", "name": "Camardi, Nigde, Turkey", "refid": null, "instrumentType": "UNK", "source": "KO", "network": "KO", "commType": "UNK", "location": "", "intensity": 4.2, "intensity_flag": "", "intensity_stddev": 0.63, "pga": 0.7499, "pgv": 3.5835, "distance": 159.98, "elev": null, "vs30": 762.04, "channels": [{"name": "HNE", "amplitudes": [{"name": "sa(0.3)", "value": 1.422, "units": "%g", "flag": "0", "ln_sigma": 0.0}, {"name": "sa(1.0)", "value": 0.8482, "units": "%g", "flag": "0", "ln_sigma": 0.0}, {"name": "sa(3.0)", "value": 0.458, "units": "%g", "flag": "0", "ln_sigma": 0.0}, {"name": "pga", "value": 0.496, "units": "%g", "flag": "0", "ln_sigma": 0.0}, {"name": "pgv", "value": 2.6909, "units": "cm/s", "flag": "0", "ln_sigma": 0.0}]}, {"name": "HNN", "amplitudes": [{"name": "sa(0.3)", "value": 1.8498, "units": "%g", "flag": "0", "ln_sigma": 0.0}, {"name": "sa(1.0)", "value": 1.3853, "units": "%g", "flag": "0", "ln_sigma": 0.0}, {"name": "sa(3.0)", "value": 0.7351, "units": "%g", "flag": "0", "ln_sigma": 0.0}, {"name": "pga", "value": 0.7499, "units": "%g", "flag": "0", "ln_sigma": 0.0}, {"name": "pgv", "value": 3.5835, "units": "cm/s", "flag": "0", "ln_sigma": 0.0}]}, {"name": "HNZ", "amplitudes": [{"name": "sa(0.3)", "value": 1.0445, "units": "%g", "flag": "0", "ln_sigma": 0.0}, {"name": "sa(1.0)", "value": 1.8744, "units": "%g", "flag": "0", "ln_sigma": 0.0}, {"name": "sa(3.0)", "value": 0.584, "units": "%g", "flag": "0", "ln_sigma": 0.0}, {"name": "pga", "value": 0.5869, "units": "%g", "flag": "0", "ln_sigma": 0.0}, {"name": "pgv", "value": 3.0968, "units": "cm/s", "flag": "0", "ln_sigma": 0.0}]}, {"name": "--.HNE", "amplitudes": [{"name": "pga", "value": 0.4706, "units": "%g", "flag": "0", "ln_sigma": 0.0}, {"name": "pgv", "value": 1.1275, "units": "cm/s", "flag": "0", "ln_sigma": 0.0}, {"name": "sa(0.3)", "value": 1.3209, "units": "%g", "flag": "0", "ln_sigma": 0.0}, {"name": "sa(1.0)", "value": 0.8144, "units": "%g", "flag": "0", "ln_sigma": 0.0}, {"name": "sa(3.0)", "value": 0.4408, "units": "%g", "flag": "0", "ln_sigma": 0.0}]}, {"name": "--.HNN", "amplitudes": [{"name": "pga", "value": 0.7137, "units": "%g", "flag": "0", "ln_sigma": 0.0}, {"name": "pgv", "value": 1.6148, "units": "cm/s", "flag": "0", "ln_sigma": 0.0}, {"name": "sa(0.3)", "value": 1.6762, "units": "%g", "flag": "0", "ln_sigma": 0.0}, {"name": "sa(1.0)", "value": 1.3616, "units": "%g", "flag": "0", "ln_sigma": 0.0}, {"name": "sa(3.0)", "value": 0.6789, "units": "%g", "flag": "0", "ln_sigma": 0.0}]}, {"name": "--.HNZ", "amplitudes": [{"name": "pga", "value": 0.4866, "units": "%g", "flag": "0", "ln_sigma": 0.0}, {"name": "pgv", "value": 1.3571, "units": "cm/s", "flag": "0", "ln_sigma": 0.0}, {"name": "sa(0.3)", "value": 1.1331, "units": "%g", "flag": "0", "ln_sigma": 0.0}, {"name": "sa(1.0)", "value": 1.9361, "units": "%g", "flag": "0", "ln_sigma": 0.0}, {"name": "sa(3.0)", "value": 0.5791, "units": "%g", "flag": "0", "ln_sigma": 0.0}]}], "station_type": "seismic", "nresp": "null", "predictions": [{"name": "pgv", "value": 4.6707, "value_rock": 4.6789, "value_soil": 11.8764, "units": "cm/s", "ln_tau": 0.3811, "ln_phi": 0.5674, "ln_sigma": 0.6835, "ln_sigma_rock": 0.6883, "ln_sigma_soil": 0.6818, "ln_bias": 0.0394, "ln_bias_sigma": 0.0482}, {"name": "pga", "value": 3.2314, "value_rock": 3.2345, "value_soil": 5.0124, "units": "%g", "ln_tau": 0.3977, "ln_phi": 0.5904, "ln_sigma": 0.7118, "ln_sigma_rock": 0.715, "ln_sigma_soil": 0.7058, "ln_bias": 0.0032, "ln_bias_sigma": 0.0498}, {"name": "sa(1.0)", "value": 3.9222, "value_rock": 3.9318, "value_soil": 14.6764, "units": "%g", "ln_tau": 0.4258, "ln_phi": 0.6761, "ln_sigma": 0.799, "ln_sigma_rock": 0.807, "ln_sigma_soil": 0.8017, "ln_bias": 0.0143, "ln_bias_sigma": 0.0575}, {"name": "sa(0.3)", "value": 6.193, "value_rock": 6.2044, "value_soil": 15.4983, "units": "%g", "ln_tau": 0.3834, "ln_phi": 0.6633, "ln_sigma": 0.7662, "ln_sigma_rock": 0.7692, "ln_sigma_soil": 0.7571, "ln_bias": -0.0121, "ln_bias_sigma": 0.0561}, {"name": "mmi", "value": 4.5913, "value_rock": 4.5936, "value_soil": 5.872, "units": "intensity", "tau": 0.523, "phi": 1.0016, "sigma": 1.1299, "sigma_rock": 1.1354, "sigma_soil": 1.128, "bias": 0.0534, "bias_sigma": 0.0962}, {"name": "sa(3.0)", "value": 1.512, "value_rock": 1.5151, "value_soil": 4.7292, "units": "%g", "ln_tau": 0.4321, "ln_phi": 0.659, "ln_sigma": 0.788, "ln_sigma_rock": 0.8004, "ln_sigma_soil": 0.8004, "ln_bias": 0.0128, "ln_bias_sigma": 0.0574}], "mmi_from_pgm": [{"name": "pgv", "value": 4.23, "sigma": 0.63, "flag": "0"}, {"name": "pga", "value": 3.22, "sigma": 0.66, "flag": "0"}, {"name": "sa(1.0)", "value": 3.28, "sigma": 0.75, "flag": "0"}, {"name": "sa(0.3)", "value": 3.66, "sigma": 0.82, "flag": "0"}, {"name": "sa(3.0)", "value": 3.93, "sigma": 0.89, "flag": "0"}], "distance_stddev": 0.0, "distances": {"repi": 189.425, "rhypo": 190.269, "rjb": 159.993, "rjb_var": 0.0, "rrup": 159.98, "rrup_var": 0.0, "rx": -131.342, "ry0": 0.0, "rvolc": 0.0}}, "geometry": {"type": "Point", "coordinates": [34.9902, 37.6623]}}, {"type": "Feature", "id": "KO.KHMN", "properties": {"code": "KHMN", "name": "Pazarcik, Kahramanmaras, Turkey", "refid": null, "instrumentType": "UNK", "source": "KO", "network": "KO", "commType": "UNK", "location": "", "intensity": 8.8, "intensity_flag": "", "intensity_stddev": 0.63, "pga": 62.9572, "pgv": 100.096, "distance": 1.021, "elev": null, "vs30": 313.91, "channels": [{"name": "HNE", "amplitudes": [{"name": "sa(0.3)", "value": 70.6746, "units": "%g", "flag": "0", "ln_sigma": 0.0}, {"name": "sa(1.0)", "value": 60.1586, "units": "%g", "flag": "0", "ln_sigma": 0.0}, {"name": "sa(3.0)", "value": 33.1964, "units": "%g", "flag": "0", "ln_sigma": 0.0}, {"name": "pga", "value": 53.0371, "units": "%g", "flag": "0", "ln_sigma": 0.0}, {"name": "pgv", "value": 100.096, "units": "cm/s", "flag": "0", "ln_sigma": 0.0}]}, {"name": "HNN", "amplitudes": [{"name": "sa(0.3)", "value": 63.0066, "units": "%g", "flag": "0", "ln_sigma": 0.0}, {"name": "sa(1.0)", "value": 48.6919, "units": "%g", "flag": "0", "ln_sigma": 0.0}, {"name": "sa(3.0)", "value": 23.2605, "units": "%g", "flag": "0", "ln_sigma": 0.0}, {"name": "pga", "value": 62.9572, "units": "%g", "flag": "0", "ln_sigma": 0.0}, {"name": "pgv", "value": 80.9896, "units": "cm/s", "flag": "0", "ln_sigma": 0.0}]}, {"name": "HNZ", "amplitudes": [{"name": "sa(0.3)", "value": 57.4024, "units": "%g", "flag": "0", "ln_sigma": 0.0}, {"name": "sa(1.0)", "value": 22.0028, "units": "%g", "flag": "0", "ln_sigma": 0.0}, {"name": "sa(3.0)", "value": 20.877, "units": "%g", "flag": "0", "ln_sigma": 0.0}, {"name": "pga", "value": 50.2911, "units": "%g", "flag": "0", "ln_sigma": 0.0}, {"name": "pgv", "value": 44.4383, "units": "cm/s", "flag": "0", "ln_sigma": 0.0}]}], "station_type": "seismic", "nresp": "null", "predictions": [{"name": "pgv", "value": 112.3118, "value_rock": 70.6948, "value_soil": 139.9661, "units": "cm/s", "ln_tau": 0.3787, "ln_phi": 0.5632, "ln_sigma": 0.6787, "ln_sigma_rock": 0.6868, "ln_sigma_soil": 0.6729, "ln_bias": 0.0392, "ln_bias_sigma": 0.0479}, {"name": "pga", "value": 74.67, "value_rock": 66.5459, "value_soil": 67.7072, "units": "%g", "ln_tau": 0.3852, "ln_phi": 0.5791, "ln_sigma": 0.6956, "ln_sigma_rock": 0.7125, "ln_sigma_soil": 0.6841, "ln_bias": 0.0031, "ln_bias_sigma": 0.0482}, {"name": "sa(1.0)", "value": 96.0394, "value_rock": 49.546, "value_soil": 128.3248, "units": "%g", "ln_tau": 0.4232, "ln_phi": 0.6715, "ln_sigma": 0.7938, "ln_sigma_rock": 0.8053, "ln_sigma_soil": 0.7858, "ln_bias": 0.0142, "ln_bias_sigma": 0.0571}, {"name": "sa(0.3)", "value": 180.9302, "value_rock": 131.648, "value_soil": 165.6752, "units": "%g", "ln_tau": 0.3703, "ln_phi": 0.6482, "ln_sigma": 0.7466, "ln_sigma_rock": 0.7661, "ln_sigma_soil": 0.7281, "ln_bias": -0.0116, "ln_bias_sigma": 0.0542}, {"name": "mmi", "value": 8.9553, "value_rock": 8.3201, "value_soil": 9.2574, "units": "intensity", "tau": 0.5197, "phi": 0.9972, "sigma": 1.1245, "sigma_rock": 1.1337, "sigma_soil": 1.1179, "bias": 0.0531, "bias_sigma": 0.0956}, {"name": "sa(3.0)", "value": 26.0906, "value_rock": 14.0213, "value_soil": 39.4861, "units": "%g", "ln_tau": 0.4319, "ln_phi": 0.6566, "ln_sigma": 0.786, "ln_sigma_rock": 0.7985, "ln_sigma_soil": 0.7983, "ln_bias": 0.0128, "ln_bias_sigma": 0.0574}], "mmi_from_pgm": [{"name": "pgv", "value": 8.8, "sigma": 0.63, "flag": "0"}, {"name": "pga", "value": 7.59, "sigma": 0.66, "flag": "0"}, {"name": "sa(1.0)", "value": 7.9, "sigma": 0.75, "flag": "0"}, {"name": "sa(0.3)", "value": 7.16, "sigma": 0.82, "flag": "0"}, {"name": "sa(3.0)", "value": 9.36, "sigma": 0.89, "flag": "0"}], "distance_stddev": 0.0, "distances": {"repi": 27.06, "rhypo": 32.445, "rjb": 0.147, "rjb_var": 0.0, "rrup": 1.021, "rrup_var": 0.0, "rx": 0.347, "ry0": 0.0, "rvolc": 0.0}}, "geometry": {"type": "Point", "coordinates": [37.1574, 37.3916]}}, {"type": "Feature", "id": "KO.KOZK", "properties": {"code": "KOZK", "name": "Kozakli, Nevsehir, Turkey", "refid": null, "instrumentType": "UNK", "source": "KO", "network": "KO", "commType": "UNK", "location": "", "intensity": 4.7, "intensity_flag": "", "intensity_stddev": 0.63, "pga": 1.0661, "pgv": 5.2272, "distance": 268.854, "elev": null, "vs30": 543.84, "channels": [{"name": "HNE", "amplitudes": [{"name": "sa(0.3)", "value": 1.4698, "units": "%g", "flag": "0", "ln_sigma": 0.0}, {"name": "sa(1.0)", "value": 2.9326, "units": "%g", "flag": "0", "ln_sigma": 0.0}, {"name": "sa(3.0)", "value": 1.1246, "units": "%g", "flag": "0", "ln_sigma": 0.0}, {"name": "pga", "value": 1.0661, "units": "%g", "flag": "0", "ln_sigma": 0.0}, {"name": "pgv", "value": 4.7466, "units": "cm/s", "flag": "0", "ln_sigma": 0.0}]}, {"name": "HNN", "amplitudes": [{"name": "sa(0.3)", "value": 1.3072, "units": "%g", "flag": "0", "ln_sigma": 0.0}, {"name": "sa(1.0)", "value": 3.1914, "units": "%g", "flag": "0", "ln_sigma": 0.0}, {"name": "sa(3.0)", "value": 1.004, "units": "%g", "flag": "0", "ln_sigma": 0.0}, {"name": "pga", "value": 1.026, "units": "%g", "flag": "0", "ln_sigma": 0.0}, {"name": "pgv", "value": 5.2272, "units": "cm/s", "flag": "0", "ln_sigma": 0.0}]}, {"name": "HNZ", "amplitudes": [{"name": "sa(0.3)", "value": 0.857, "units": "%g", "flag": "0", "ln_sigma": 0.0}, {"name": "sa(1.0)", "value": 0.7541, "units": "%g", "flag": "0", "ln_sigma": 0.0}, {"name": "sa(3.0)", "value": 0.4121, "units": "%g", "flag": "0", "ln_sigma": 0.0}, {"name": "pga", "value": 0.4287, "units": "%g", "flag": "0", "ln_sigma": 0.0}, {"name": "pgv", "value": 1.9087, "units": "cm/s", "flag": "0", "ln_sigma": 0.0}]}, {"name": "--.HNE", "amplitudes": [{"name": "pga", "value": 0.8058, "units": "%g", "flag": "0", "ln_sigma": 0.0}, {"name": "pgv", "value": 2.0529, "units": "cm/s", "flag": "0", "ln_sigma": 0.0}, {"name": "sa(0.3)", "value": 1.1075, "units": "%g", "flag": "0", "ln_sigma": 0.0}, {"name": "sa(1.0)", "value": 3.0306, "units": "%g", "flag": "0", "ln_sigma": 0.0}, {"name": "sa(3.0)", "value": 1.0727, "units": "%g", "flag": "0", "ln_sigma": 0.0}]}, {"name": "--.HNN", "amplitudes": [{"name": "pga", "value": 0.7726, "units": "%g", "flag": "0", "ln_sigma": 0.0}, {"name": "pgv", "value": 1.8381, "units": "cm/s", "flag": "0", "ln_sigma": 0.0}, {"name": "sa(0.3)", "value": 1.3239, "units": "%g", "flag": "0", "ln_sigma": 0.0}, {"name": "sa(1.0)", "value": 3.2582, "units": "%g", "flag": "0", "ln_sigma": 0.0}, {"name": "sa(3.0)", "value": 0.9269, "units": "%g", "flag": "0", "ln_sigma": 0.0}]}, {"name": "--.HNZ", "amplitudes": [{"name": "pga", "value": 0.4297, "units": "%g", "flag": "0", "ln_sigma": 0.0}, {"name": "pgv", "value": 0.6774, "units": "cm/s", "flag": "0", "ln_sigma": 0.0}, {"name": "sa(0.3)", "value": 0.7892, "units": "%g", "flag": "0", "ln_sigma": 0.0}, {"name": "sa(1.0)", "value": 0.7252, "units": "%g", "flag": "0", "ln_sigma": 0.0}, {"name": "sa(3.0)", "value": 0.3806, "units": "%g", "flag": "0", "ln_sigma": 0.0}]}], "station_type": "seismic", "nresp": "null", "predictions": [{"name": "pgv", "value": 3.6787, "value_rock": 2.9291, "value_soil": 7.5963, "units": "cm/s", "ln_tau": 0.3811, "ln_phi": 0.5695, "ln_sigma": 0.6852, "ln_sigma_rock": 0.6902, "ln_sigma_soil": 0.6846, "ln_bias": 0.0394, "ln_bias_sigma": 0.0482}, {"name": "pga", "value": 1.8299, "value_rock": 1.5836, "value_soil": 2.5389, "units": "%g", "ln_tau": 0.3976, "ln_phi": 0.5931, "ln_sigma": 0.7141, "ln_sigma_rock": 0.7175, "ln_sigma_soil": 0.711, "ln_bias": 0.0032, "ln_bias_sigma": 0.0498}, {"name": "sa(1.0)", "value": 3.5385, "value_rock": 2.5444, "value_soil": 9.7802, "units": "%g", "ln_tau": 0.4258, "ln_phi": 0.679, "ln_sigma": 0.8014, "ln_sigma_rock": 0.8097, "ln_sigma_soil": 0.8059, "ln_bias": 0.0143, "ln_bias_sigma": 0.0575}, {"name": "sa(0.3)", "value": 4.229, "value_rock": 3.1857, "value_soil": 8.3729, "units": "%g", "ln_tau": 0.3834, "ln_phi": 0.6669, "ln_sigma": 0.7693, "ln_sigma_rock": 0.7727, "ln_sigma_soil": 0.7646, "ln_bias": -0.0121, "ln_bias_sigma": 0.0561}, {"name": "mmi", "value": 4.2636, "value_rock": 4.0521, "value_soil": 5.2587, "units": "intensity", "tau": 0.523, "phi": 1.0039, "sigma": 1.1319, "sigma_rock": 0.7688, "sigma_soil": 1.1312, "bias": 0.0534, "bias_sigma": 0.0962}, {"name": "sa(3.0)", "value": 1.3423, "value_rock": 1.024, "value_soil": 3.2298, "units": "%g", "ln_tau": 0.432, "ln_phi": 0.6611, "ln_sigma": 0.7898, "ln_sigma_rock": 0.8024, "ln_sigma_soil": 0.8023, "ln_bias": 0.0128, "ln_bias_sigma": 0.0574}], "mmi_from_pgm": [{"name": "pgv", "value": 4.75, "sigma": 0.63, "flag": "0"}, {"name": "pga", "value": 3.69, "sigma": 0.66, "flag": "0"}, {"name": "sa(1.0)", "value": 3.73, "sigma": 0.75, "flag": "0"}, {"name": "sa(0.3)", "value": 3.63, "sigma": 0.82, "flag": "0"}, {"name": "sa(3.0)", "value": 4.12, "sigma": 0.89, "flag": "0"}], "distance_stddev": 0.0, "distances": {"repi": 296.216, "rhypo": 296.756, "rjb": 268.914, "rjb_var": 0.0, "rrup": 268.854, "rrup_var": 0.0, "rx": -231.667, "ry0": 0.0, "rvolc": 0.0}}, "geometry": {"type": "Point", "coordinates": [34.868, 39.2101]}}, {"type": "Feature", "id": "KO.KRTS", "properties": {"code": "KRTS", "name": "Karatas, Adana, Turkey", "refid": null, "instrumentType": "UNK", "source": "KO", "network": "KO", "commType": "UNK", "location": "", "intensity": 6.2, "intensity_flag": "", "intensity_stddev": 0.63, "pga": 5.5023, "pgv": 15.1153, "distance": 83.604, "elev": null, "vs30": 331.46, "channels": [{"name": "HNE", "amplitudes": [{"name": "sa(0.3)", "value": 17.3221, "units": "%g", "flag": "0", "ln_sigma": 0.0}, {"name": "sa(1.0)", "value": 7.9116, "units": "%g", "flag": "0", "ln_sigma": 0.0}, {"name": "sa(3.0)", "value": 3.4312, "units": "%g", "flag": "0", "ln_sigma": 0.0}, {"name": "pga", "value": 4.2816, "units": "%g", "flag": "0", "ln_sigma": 0.0}, {"name": "pgv",